{"type": "FeatureCollection", "features": [ {"type": "Feature", "properties": {"norad_id": 39122, "name": "EUTELSAT 117 WEST A", "group": "eutelsat", "lat": -0.008429594424259867, "lon": -173.84559091347825, "alt_km": 35783.03887077072, "timestamp": "2025-12-10T14:53:36.793573+00:00", "meta": {"OBJECT_NAME": "EUTELSAT 117 WEST A", "OBJECT_ID": "2013-012A", "EPOCH": "2025-12-10T04:39:38.509344", "MEAN_MOTION": 1.00270942, "ECCENTRICITY": 0.00030361, "INCLINATION": 0.0128, "RA_OF_ASC_NODE": 356.7069, "ARG_OF_PERICENTER": 264.7569, "MEAN_ANOMALY": 130.8158, "EPHEMERIS_TYPE": 0, "CLASSIFICATION_TYPE": "U", "NORAD_CAT_ID": 39122, "ELEMENT_SET_NO": 999, "REV_AT_EPOCH": 4653, "BSTAR": 0, "MEAN_MOTION_DOT": -1e-07, "MEAN_MOTION_DDOT": 0}, "tle": {"line1": "1 39122U 13012A   25344.19419571 -.00000010  00000+0  00000+0 0  9999", "line2": "2 39122   0.0128 356.7069 0003036 264.7569 130.8158  1.00270942 46536"}}, "geometry": {"type": "Point", "coordinates": [-173.84559091347825, -0.008429594424259867]}}, {"type": "Feature", "properties": {"norad_id": 39163, "name": "EUTELSAT 7B", "group": "eutelsat", "lat": -0.07549569502097718, "lon": -50.02232075623571, "alt_km": 35766.76739894508, "timestamp": "2025-12-10T14:53:36.793584+00:00", "meta": {"OBJECT_NAME": "EUTELSAT 7B", "OBJECT_ID": "2013-022A", "EPOCH": "2025-12-10T04:08:38.649120", "MEAN_MOTION": 1.00271972, "ECCENTRICITY": 0.00045893, "INCLINATION": 0.0713, "RA_OF_ASC_NODE": 16.1451, "ARG_OF_PERICENTER": 299.181, "MEAN_ANOMALY": 192.9753, "EPHEMERIS_TYPE": 0, "CLASSIFICATION_TYPE": "U", "NORAD_CAT_ID": 39163, "ELEMENT_SET_NO": 999, "REV_AT_EPOCH": 4606, "BSTAR": 0, "MEAN_MOTION_DOT": 5.1e-07, "MEAN_MOTION_DDOT": 0}, "tle": {"line1": "1 39163U 13022A   25344.17266955  .00000051  00000+0  00000+0 0  9993", "line2": "2 39163   0.0713  16.1451 0004589 299.1810 192.9753  1.00271972 46060"}}, "geometry": {"type": "Point", "coordinates": [-50.02232075623571, -0.07549569502097718]}}, {"type": "Feature", "properties": {"norad_id": 39612, "name": "EXPRESS-AT1", "group": "eutelsat", "lat": 0.016683503519013893, "lon": -1.0124258702843458, "alt_km": 35788.57396016565, "timestamp": "2025-12-10T14:53:36.793605+00:00", "meta": {"OBJECT_NAME": "EXPRESS-AT1", "OBJECT_ID": "2014-010A", "EPOCH": "2025-12-10T00:53:38.582304", "MEAN_MOTION": 1.0027054, "ECCENTRICITY": 5.761e-05, "INCLINATION": 0.0121, "RA_OF_ASC_NODE": 290.9998, "ARG_OF_PERICENTER": 272.8151, "MEAN_ANOMALY": 304.608, "EPHEMERIS_TYPE": 0, "CLASSIFICATION_TYPE": "U", "NORAD_CAT_ID": 39612, "ELEMENT_SET_NO": 999, "REV_AT_EPOCH": 4292, "BSTAR": 0, "MEAN_MOTION_DOT": 8.2e-07, "MEAN_MOTION_DDOT": 0}, "tle": {"line1": "1 39612U 14010A   25344.03725211  .00000082  00000+0  00000+0 0  9994", "line2": "2 39612   0.0121 290.9998 0000576 272.8151 304.6080  1.00270540 42924"}}, "geometry": {"type": "Point", "coordinates": [-1.0124258702843458, 0.016683503519013893]}}, {"type": "Feature", "properties": {"norad_id": 39613, "name": "EXPRESS-AT2", "group": "eutelsat", "lat": 0.03439105793491073, "lon": 82.86255171198962, "alt_km": 35792.25189015844, "timestamp": "2025-12-10T14:53:36.793624+00:00", "meta": {"OBJECT_NAME": "EXPRESS-AT2", "OBJECT_ID": "2014-010B", "EPOCH": "2025-12-10T06:12:28.999872", "MEAN_MOTION": 1.00269735, "ECCENTRICITY": 0.00015431, "INCLINATION": 0.0166, "RA_OF_ASC_NODE": 337.7142, "ARG_OF_PERICENTER": 316.8076, "MEAN_ANOMALY": 17.6984, "EPHEMERIS_TYPE": 0, "CLASSIFICATION_TYPE": "U", "NORAD_CAT_ID": 39613, "ELEMENT_SET_NO": 999, "REV_AT_EPOCH": 4260, "BSTAR": 0, "MEAN_MOTION_DOT": 0, "MEAN_MOTION_DDOT": 0}, "tle": {"line1": "1 39613U 14010B   25344.25866898  .00000000  00000+0  00000+0 0  9996", "line2": "2 39613   0.0166 337.7142 0001543 316.8076  17.6984  1.00269735 42608"}}, "geometry": {"type": "Point", "coordinates": [82.86255171198962, 0.03439105793491073]}}, {"type": "Feature", "properties": {"norad_id": 39773, "name": "EUTELSAT 3B", "group": "eutelsat", "lat": -0.04866467778733578, "lon": -53.84671003178434, "alt_km": 35781.74034192872, "timestamp": "2025-12-10T14:53:36.793643+00:00", "meta": {"OBJECT_NAME": "EUTELSAT 3B", "OBJECT_ID": "2014-030A", "EPOCH": "2025-12-10T04:08:38.649120", "MEAN_MOTION": 1.00271706, "ECCENTRICITY": 0.00046926, "INCLINATION": 0.0626, "RA_OF_ASC_NODE": 343.4311, "ARG_OF_PERICENTER": 245.1454, "MEAN_ANOMALY": 275.8439, "EPHEMERIS_TYPE": 0, "CLASSIFICATION_TYPE": "U", "NORAD_CAT_ID": 39773, "ELEMENT_SET_NO": 999, "REV_AT_EPOCH": 4217, "BSTAR": 0, "MEAN_MOTION_DOT": 2.3e-07, "MEAN_MOTION_DDOT": 0}, "tle": {"line1": "1 39773U 14030A   25344.17266955  .00000023  00000+0  00000+0 0  9999", "line2": "2 39773   0.0626 343.4311 0004692 245.1454 275.8439  1.00271706 42176"}}, "geometry": {"type": "Point", "coordinates": [-53.84671003178434, -0.04866467778733578]}}, {"type": "Feature", "properties": {"norad_id": 40425, "name": "EUTELSAT 115 WEST B", "group": "eutelsat", "lat": 0.004101377411934976, "lon": -171.90283173215738, "alt_km": 35786.19542833937, "timestamp": "2025-12-10T14:53:36.793654+00:00", "meta": {"OBJECT_NAME": "EUTELSAT 115 WEST B", "OBJECT_ID": "2015-010B", "EPOCH": "2025-12-10T04:39:38.509344", "MEAN_MOTION": 1.00271354, "ECCENTRICITY": 9.62e-06, "INCLINATION": 0.0103, "RA_OF_ASC_NODE": 146.2902, "ARG_OF_PERICENTER": 311.1919, "MEAN_ANOMALY": 296.7047, "EPHEMERIS_TYPE": 0, "CLASSIFICATION_TYPE": "U", "NORAD_CAT_ID": 40425, "ELEMENT_SET_NO": 999, "REV_AT_EPOCH": 3949, "BSTAR": 0, "MEAN_MOTION_DOT": -2.2e-07, "MEAN_MOTION_DDOT": 0}, "tle": {"line1": "1 40425U 15010B   25344.19419571 -.00000022  00000+0  00000+0 0  9990", "line2": "2 40425   0.0103 146.2902 0000096 311.1919 296.7047  1.00271354 39498"}}, "geometry": {"type": "Point", "coordinates": [-171.90283173215738, 0.004101377411934976]}}, {"type": "Feature", "properties": {"norad_id": 40875, "name": "EUTELSAT 8 WEST B", "group": "eutelsat", "lat": -0.073553122179565, "lon": -64.96391346308039, "alt_km": 35771.64845926907, "timestamp": "2025-12-10T14:53:36.793665+00:00", "meta": {"OBJECT_NAME": "EUTELSAT 8 WEST B", "OBJECT_ID": "2015-039B", "EPOCH": "2025-12-10T02:31:38.699328", "MEAN_MOTION": 1.00271527, "ECCENTRICITY": 0.00041722, "INCLINATION": 0.0646, "RA_OF_ASC_NODE": 2.1604, "ARG_OF_PERICENTER": 258.1064, "MEAN_ANOMALY": 208.7456, "EPHEMERIS_TYPE": 0, "CLASSIFICATION_TYPE": "U", "NORAD_CAT_ID": 40875, "ELEMENT_SET_NO": 999, "REV_AT_EPOCH": 3776, "BSTAR": 0, "MEAN_MOTION_DOT": -6.2e-07, "MEAN_MOTION_DDOT": 0}, "tle": {"line1": "1 40875U 15039B   25344.10530902 -.00000062  00000+0  00000+0 0  9997", "line2": "2 40875   0.0646   2.1604 0004172 258.1064 208.7456  1.00271527 37765"}}, "geometry": {"type": "Point", "coordinates": [-64.96391346308039, -0.073553122179565]}}, {"type": "Feature", "properties": {"norad_id": 41310, "name": "EUTELSAT 9B", "group": "eutelsat", "lat": -0.043765341260006224, "lon": -47.949124455565325, "alt_km": 35771.74636742472, "timestamp": "2025-12-10T14:53:36.793675+00:00", "meta": {"OBJECT_NAME": "EUTELSAT 9B", "OBJECT_ID": "2016-005A", "EPOCH": "2025-12-10T04:08:38.649120", "MEAN_MOTION": 1.00272588, "ECCENTRICITY": 0.00048434, "INCLINATION": 0.0386, "RA_OF_ASC_NODE": 57.1117, "ARG_OF_PERICENTER": 208.3432, "MEAN_ANOMALY": 244.8735, "EPHEMERIS_TYPE": 0, "CLASSIFICATION_TYPE": "U", "NORAD_CAT_ID": 41310, "ELEMENT_SET_NO": 999, "REV_AT_EPOCH": 3622, "BSTAR": 0, "MEAN_MOTION_DOT": 6.5e-07, "MEAN_MOTION_DDOT": 0}, "tle": {"line1": "1 41310U 16005A   25344.17266955  .00000065  00000+0  00000+0 0  9999", "line2": "2 41310   0.0386  57.1117 0004843 208.3432 244.8735  1.00272588 36220"}}, "geometry": {"type": "Point", "coordinates": [-47.949124455565325, -0.043765341260006224]}}, {"type": "Feature", "properties": {"norad_id": 41382, "name": "EUTELSAT 65 WEST A", "group": "eutelsat", "lat": -0.05612457938129683, "lon": -122.22304843964453, "alt_km": 35776.10975849602, "timestamp": "2025-12-10T14:53:36.793686+00:00", "meta": {"OBJECT_NAME": "EUTELSAT 65 WEST A", "OBJECT_ID": "2016-014A", "EPOCH": "2025-12-10T04:07:38.715168", "MEAN_MOTION": 1.00272579, "ECCENTRICITY": 0.00026195, "INCLINATION": 0.0501, "RA_OF_ASC_NODE": 7.2682, "ARG_OF_PERICENTER": 258.3578, "MEAN_ANOMALY": 170.2329, "EPHEMERIS_TYPE": 0, "CLASSIFICATION_TYPE": "U", "NORAD_CAT_ID": 41382, "ELEMENT_SET_NO": 999, "REV_AT_EPOCH": 3564, "BSTAR": 0, "MEAN_MOTION_DOT": -2.73e-06, "MEAN_MOTION_DDOT": 0}, "tle": {"line1": "1 41382U 16014A   25344.17197587 -.00000273  00000+0  00000+0 0  9994", "line2": "2 41382   0.0501   7.2682 0002619 258.3578 170.2329  1.00272579 35642"}}, "geometry": {"type": "Point", "coordinates": [-122.22304843964453, -0.05612457938129683]}}, {"type": "Feature", "properties": {"norad_id": 41589, "name": "EUTELSAT 117 WEST B", "group": "eutelsat", "lat": 0.006301709064903069, "lon": -173.99459381422233, "alt_km": 35786.21214216172, "timestamp": "2025-12-10T14:53:36.793697+00:00", "meta": {"OBJECT_NAME": "EUTELSAT 117 WEST B", "OBJECT_ID": "2016-038B", "EPOCH": "2025-12-09T14:43:38.546976", "MEAN_MOTION": 1.00271212, "ECCENTRICITY": 3.695e-05, "INCLINATION": 0.0013, "RA_OF_ASC_NODE": 169.4504, "ARG_OF_PERICENTER": 286.2539, "MEAN_ANOMALY": 86.8165, "EPHEMERIS_TYPE": 0, "CLASSIFICATION_TYPE": "U", "NORAD_CAT_ID": 41589, "ELEMENT_SET_NO": 999, "REV_AT_EPOCH": 3476, "BSTAR": 0, "MEAN_MOTION_DOT": -9e-08, "MEAN_MOTION_DDOT": 0}, "tle": {"line1": "1 41589U 16038B   25343.61364059 -.00000009  00000+0  00000+0 0  9994", "line2": "2 41589   0.0013 169.4504 0000369 286.2539  86.8165  1.00271212 34765"}}, "geometry": {"type": "Point", "coordinates": [-173.99459381422233, 0.006301709064903069]}}]}